UNKNOWN                 
1 82597U          26022.32008347  .00003664  00000+0  12199-2 0  9992
2 82597  66.7702  41.1240 0099662 279.0308  79.9526 14.35928970634801
UNKNOWN                 
1 82617U          26021.07432955  .00001556  00000+0  40979-3 0  9998
2 82617  74.0266 169.8048 0037394 103.8972 256.6352 14.49464591642528
UNKNOWN                 
1 82627U          26021.51095346  .00000841  00000+0  21736-2 0  9992
2 82627  82.4740 220.2675 0013304 351.8570  36.9046 13.16365194584066
UNKNOWN                 
1 82642U          26016.48428920  .00001285  00000+0  72749-3 0  9991
2 82642  98.9769 291.7951 0135542 138.9321 222.2147 14.07330205621029
UNKNOWN                 
1 82683U          26021.42608321  .00002273  00000+0  87031-3 0  9999
2 82683  98.1688  92.3960 0209241 279.6789  78.0812 14.20237425467906
UNKNOWN                 
1 82693U          26020.64252526  .00004543  00000+0  52153-2 0  9993
2 82693 100.5293 352.7327 0043550 291.1696  68.4796 13.69750789559082
UNKNOWN                 
1 82698U          26021.74060542  .00005121  00000+0  29719-2 0  9990
2 82698  61.6123  43.3429 0687174 304.5058  49.2873 13.29630902543692
UNKNOWN                 
1 82708U          26022.02572213  .00001486  00000+0  57824-2 0  9995
2 82708 102.1646 234.0840 0061379 207.5993 152.1835 12.90666324528716
UNKNOWN                 
1 82729U          26013.19588209  .00000934  00000+0  32244-2 0  9994
2 82729  67.9661  91.5066 0833787 349.2128   9.1904 12.17793327539032
UNKNOWN                 
1 82739U          26020.93521871  .00002447  00000+0  20316-2 0  9995
2 82739  99.0887 180.9388 0174116 188.4670 324.8378 13.82878623611521
UNKNOWN                 
1 82741U          26021.39653385  .00004853  00000+0  51487-2 0  9991
2 82741 102.8444  74.6041 0205723 178.3954 181.7879 13.66260198602499
UNKNOWN                 
1 82783U          26021.30541368 -.00000295  00000+0 -88079-3 0  9991
2 82783  90.3394  39.4328 0022583   9.9823 350.1749 13.09058559509534
