CCSDS_OMM_VERS = 2.0
CREATION_DATE  = 
ORIGINATOR     = 

OBJECT_NAME    = UNKNOWN
OBJECT_ID      = 
CENTER_NAME    = EARTH
REF_FRAME      = TEME
TIME_SYSTEM    = UTC
MEAN_ELEMENT_THEORY = SGP/SGP4

EPOCH          = 2026-01-22T07:40:55.211808
MEAN_MOTION    = 14.35928970
ECCENTRICITY   = .0099662
INCLINATION    = 66.7702
RA_OF_ASC_NODE = 41.1240
ARG_OF_PERICENTER = 279.0308
MEAN_ANOMALY   = 79.9526

EPHEMERIS_TYPE = 0
CLASSIFICATION_TYPE = U
NORAD_CAT_ID   = 82597
ELEMENT_SET_NO = 999
REV_AT_EPOCH   = 63480
BSTAR          = .12199E-2
MEAN_MOTION_DOT = .3664E-4
MEAN_MOTION_DDOT = 0

CCSDS_OMM_VERS = 2.0
CREATION_DATE  = 
ORIGINATOR     = 

OBJECT_NAME    = UNKNOWN
OBJECT_ID      = 
CENTER_NAME    = EARTH
REF_FRAME      = TEME
TIME_SYSTEM    = UTC
MEAN_ELEMENT_THEORY = SGP/SGP4

EPOCH          = 2026-01-21T01:47:02.073120
MEAN_MOTION    = 14.49464591
ECCENTRICITY   = .0037394
INCLINATION    = 74.0266
RA_OF_ASC_NODE = 169.8048
ARG_OF_PERICENTER = 103.8972
MEAN_ANOMALY   = 256.6352

EPHEMERIS_TYPE = 0
CLASSIFICATION_TYPE = U
NORAD_CAT_ID   = 82617
ELEMENT_SET_NO = 999
REV_AT_EPOCH   = 64252
BSTAR          = .40979E-3
MEAN_MOTION_DOT = .1556E-4
MEAN_MOTION_DDOT = 0

CCSDS_OMM_VERS = 2.0
CREATION_DATE  = 
ORIGINATOR     = 

OBJECT_NAME    = UNKNOWN
OBJECT_ID      = 
CENTER_NAME    = EARTH
REF_FRAME      = TEME
TIME_SYSTEM    = UTC
MEAN_ELEMENT_THEORY = SGP/SGP4

EPOCH          = 2026-01-21T12:15:46.378944
MEAN_MOTION    = 13.16365194
ECCENTRICITY   = .0013304
INCLINATION    = 82.4740
RA_OF_ASC_NODE = 220.2675
ARG_OF_PERICENTER = 351.8570
MEAN_ANOMALY   = 36.9046

EPHEMERIS_TYPE = 0
CLASSIFICATION_TYPE = U
NORAD_CAT_ID   = 82627
ELEMENT_SET_NO = 999
REV_AT_EPOCH   = 58406
BSTAR          = .21736E-2
MEAN_MOTION_DOT = .841E-5
MEAN_MOTION_DDOT = 0

CCSDS_OMM_VERS = 2.0
CREATION_DATE  = 
ORIGINATOR     = 

OBJECT_NAME    = UNKNOWN
OBJECT_ID      = 
CENTER_NAME    = EARTH
REF_FRAME      = TEME
TIME_SYSTEM    = UTC
MEAN_ELEMENT_THEORY = SGP/SGP4

EPOCH          = 2026-01-16T11:37:22.586880
MEAN_MOTION    = 14.07330205
ECCENTRICITY   = .0135542
INCLINATION    = 98.9769
RA_OF_ASC_NODE = 291.7951
ARG_OF_PERICENTER = 138.9321
MEAN_ANOMALY   = 222.2147

EPHEMERIS_TYPE = 0
CLASSIFICATION_TYPE = U
NORAD_CAT_ID   = 82642
ELEMENT_SET_NO = 999
REV_AT_EPOCH   = 62102
BSTAR          = .72749E-3
MEAN_MOTION_DOT = .1285E-4
MEAN_MOTION_DDOT = 0

CCSDS_OMM_VERS = 2.0
CREATION_DATE  = 
ORIGINATOR     = 

OBJECT_NAME    = UNKNOWN
OBJECT_ID      = 
CENTER_NAME    = EARTH
REF_FRAME      = TEME
TIME_SYSTEM    = UTC
MEAN_ELEMENT_THEORY = SGP/SGP4

EPOCH          = 2026-01-21T10:13:33.589344
MEAN_MOTION    = 14.20237425
ECCENTRICITY   = .0209241
INCLINATION    = 98.1688
RA_OF_ASC_NODE = 92.3960
ARG_OF_PERICENTER = 279.6789
MEAN_ANOMALY   = 78.0812

EPHEMERIS_TYPE = 0
CLASSIFICATION_TYPE = U
NORAD_CAT_ID   = 82683
ELEMENT_SET_NO = 999
REV_AT_EPOCH   = 46790
BSTAR          = .87031E-3
MEAN_MOTION_DOT = .2273E-4
MEAN_MOTION_DDOT = 0

CCSDS_OMM_VERS = 2.0
CREATION_DATE  = 
ORIGINATOR     = 

OBJECT_NAME    = UNKNOWN
OBJECT_ID      = 
CENTER_NAME    = EARTH
REF_FRAME      = TEME
TIME_SYSTEM    = UTC
MEAN_ELEMENT_THEORY = SGP/SGP4

EPOCH          = 2026-01-20T15:25:14.182464
MEAN_MOTION    = 13.69750789
ECCENTRICITY   = .004355
INCLINATION    = 100.5293
RA_OF_ASC_NODE = 352.7327
ARG_OF_PERICENTER = 291.1696
MEAN_ANOMALY   = 68.4796

EPHEMERIS_TYPE = 0
CLASSIFICATION_TYPE = U
NORAD_CAT_ID   = 82693
ELEMENT_SET_NO = 999
REV_AT_EPOCH   = 55908
BSTAR          = .52153E-2
MEAN_MOTION_DOT = .4543E-4
MEAN_MOTION_DDOT = 0

CCSDS_OMM_VERS = 2.0
CREATION_DATE  = 
ORIGINATOR     = 

OBJECT_NAME    = UNKNOWN
OBJECT_ID      = 
CENTER_NAME    = EARTH
REF_FRAME      = TEME
TIME_SYSTEM    = UTC
MEAN_ELEMENT_THEORY = SGP/SGP4

EPOCH          = 2026-01-21T17:46:28.308288
MEAN_MOTION    = 13.29630902
ECCENTRICITY   = .0687174
INCLINATION    = 61.6123
RA_OF_ASC_NODE = 43.3429
ARG_OF_PERICENTER = 304.5058
MEAN_ANOMALY   = 49.2873

EPHEMERIS_TYPE = 0
CLASSIFICATION_TYPE = U
NORAD_CAT_ID   = 82698
ELEMENT_SET_NO = 999
REV_AT_EPOCH   = 54369
BSTAR          = .29719E-2
MEAN_MOTION_DOT = .5121E-4
MEAN_MOTION_DDOT = 0

CCSDS_OMM_VERS = 2.0
CREATION_DATE  = 
ORIGINATOR     = 

OBJECT_NAME    = UNKNOWN
OBJECT_ID      = 
CENTER_NAME    = EARTH
REF_FRAME      = TEME
TIME_SYSTEM    = UTC
MEAN_ELEMENT_THEORY = SGP/SGP4

EPOCH          = 2026-01-22T00:37:02.392032
MEAN_MOTION    = 12.90666324
ECCENTRICITY   = .0061379
INCLINATION    = 102.1646
RA_OF_ASC_NODE = 234.0840
ARG_OF_PERICENTER = 207.5993
MEAN_ANOMALY   = 152.1835

EPHEMERIS_TYPE = 0
CLASSIFICATION_TYPE = U
NORAD_CAT_ID   = 82708
ELEMENT_SET_NO = 999
REV_AT_EPOCH   = 52871
BSTAR          = .57824E-2
MEAN_MOTION_DOT = .1486E-4
MEAN_MOTION_DDOT = 0

CCSDS_OMM_VERS = 2.0
CREATION_DATE  = 
ORIGINATOR     = 

OBJECT_NAME    = UNKNOWN
OBJECT_ID      = 
CENTER_NAME    = EARTH
REF_FRAME      = TEME
TIME_SYSTEM    = UTC
MEAN_ELEMENT_THEORY = SGP/SGP4

EPOCH          = 2026-01-13T04:42:04.212576
MEAN_MOTION    = 12.17793327
ECCENTRICITY   = .0833787
INCLINATION    = 67.9661
RA_OF_ASC_NODE = 91.5066
ARG_OF_PERICENTER = 349.2128
MEAN_ANOMALY   = 9.1904

EPHEMERIS_TYPE = 0
CLASSIFICATION_TYPE = U
NORAD_CAT_ID   = 82729
ELEMENT_SET_NO = 999
REV_AT_EPOCH   = 53903
BSTAR          = .32244E-2
MEAN_MOTION_DOT = .934E-5
MEAN_MOTION_DDOT = 0

CCSDS_OMM_VERS = 2.0
CREATION_DATE  = 
ORIGINATOR     = 

OBJECT_NAME    = UNKNOWN
OBJECT_ID      = 
CENTER_NAME    = EARTH
REF_FRAME      = TEME
TIME_SYSTEM    = UTC
MEAN_ELEMENT_THEORY = SGP/SGP4

EPOCH          = 2026-01-20T22:26:42.896544
MEAN_MOTION    = 13.82878623
ECCENTRICITY   = .0174116
INCLINATION    = 99.0887
RA_OF_ASC_NODE = 180.9388
ARG_OF_PERICENTER = 188.4670
MEAN_ANOMALY   = 324.8378

EPHEMERIS_TYPE = 0
CLASSIFICATION_TYPE = U
NORAD_CAT_ID   = 82739
ELEMENT_SET_NO = 999
REV_AT_EPOCH   = 61152
BSTAR          = .20316E-2
MEAN_MOTION_DOT = .2447E-4
MEAN_MOTION_DDOT = 0

CCSDS_OMM_VERS = 2.0
CREATION_DATE  = 
ORIGINATOR     = 

OBJECT_NAME    = UNKNOWN
OBJECT_ID      = 
CENTER_NAME    = EARTH
REF_FRAME      = TEME
TIME_SYSTEM    = UTC
MEAN_ELEMENT_THEORY = SGP/SGP4

EPOCH          = 2026-01-21T09:31:00.524640
MEAN_MOTION    = 13.66260198
ECCENTRICITY   = .0205723
INCLINATION    = 102.8444
RA_OF_ASC_NODE = 74.6041
ARG_OF_PERICENTER = 178.3954
MEAN_ANOMALY   = 181.7879

EPHEMERIS_TYPE = 0
CLASSIFICATION_TYPE = U
NORAD_CAT_ID   = 82741
ELEMENT_SET_NO = 999
REV_AT_EPOCH   = 60249
BSTAR          = .51487E-2
MEAN_MOTION_DOT = .4853E-4
MEAN_MOTION_DDOT = 0

CCSDS_OMM_VERS = 2.0
CREATION_DATE  = 
ORIGINATOR     = 

OBJECT_NAME    = UNKNOWN
OBJECT_ID      = 
CENTER_NAME    = EARTH
REF_FRAME      = TEME
TIME_SYSTEM    = UTC
MEAN_ELEMENT_THEORY = SGP/SGP4

EPOCH          = 2026-01-21T07:19:47.741952
MEAN_MOTION    = 13.09058559
ECCENTRICITY   = .0022583
INCLINATION    = 90.3394
RA_OF_ASC_NODE = 39.4328
ARG_OF_PERICENTER = 9.9823
MEAN_ANOMALY   = 350.1749

EPHEMERIS_TYPE = 0
CLASSIFICATION_TYPE = U
NORAD_CAT_ID   = 82783
ELEMENT_SET_NO = 999
REV_AT_EPOCH   = 50953
BSTAR          = -.88079E-3
MEAN_MOTION_DOT = -.295E-5
MEAN_MOTION_DDOT = 0

